COSMOS 2242             
1 22626U 93024A   26069.97315869  .00002076  00000+0  17995-3 0  9995
2 22626  82.5156 265.4885 0015106 304.1727  55.8062 14.96554986780583
SL-16 R/B               
1 22803U 93059B   26069.95910911 -.00000129  00000+0 -39833-4 0  9992
2 22803  70.9928   8.4489 0018477 214.7324 145.2595 14.17231463679718
ARIANE 40 R/B           
1 22830U 93061H   26069.95552259  .00000225  00000+0  98349-4 0  9994
2 22830  98.4913 138.8182 0009545 280.9265  79.0845 14.32861662694288
COSMOS 2278             
1 23087U 94023A   26069.72928933  .00000074  00000+0  63043-4 0  9994
2 23087  71.0553 172.9226 0008119  11.0961 349.0340 14.14379218644950
SL-16 R/B               
1 23088U 94023B   26069.42182521 -.00000239  00000+0 -98609-4 0  9998
2 23088  70.9986  69.3494 0005711 284.9255  75.1235 14.15011602646196
SL-16 R/B               
1 23343U 94074B   26070.00367898  .00000560  00000+0  81678-4 0  9999
2 23343  97.7108 100.7681 0005883 205.4734 177.4528 14.79409628687444
SL-16 R/B               
1 23405U 94077B   26069.89782155  .00000029  00000+0  39058-4 0  9998
2 23405  70.9853 349.9476 0003032 210.4996 149.5951 14.15561344616404
ARIANE 40+ R/B          
1 23561U 95021B   26069.79933624  .00000354  00000+0  12668-3 0  9997
2 23561  98.4494 141.2667 0007671 133.4864 337.2868 14.39773382619408
SL-16 R/B               
1 23705U 95058B   26069.69287551  .00000336  00000+0  19609-3 0  9999
2 23705  71.0222 178.1490 0010774 123.8863 236.3286 14.15496012567992
SL-16 R/B               
1 24298U 96051B   26069.73257168  .00000101  00000+0  81415-4 0  9992
2 24298  70.7603 173.0311 0015025 146.5256 213.6817 14.12415984521799
ORBVIEW 2 (SEASTAR)     
1 24883U 97037A   26069.95133642  .00000362  00000+0  14226-3 0  9995
2 24883  98.8571 234.2966 0003071  69.5199 290.6315 14.35495987508652
SL-16 R/B               
1 25400U 98043G   26069.85421201  .00000099  00000+0  60287-4 0  9995
2 25400  98.8253  23.2258 0010161  17.2309 342.9213 14.26050139439158
