CCSDS_OMM_VERS = 2.0
CREATION_DATE  = 
ORIGINATOR     = 

OBJECT_NAME    = COSMOS 2242
OBJECT_ID      = 1993-024A
CENTER_NAME    = EARTH
REF_FRAME      = TEME
TIME_SYSTEM    = UTC
MEAN_ELEMENT_THEORY = SGP/SGP4

EPOCH          = 2026-03-10T23:21:20.910816
MEAN_MOTION    = 14.96554986
ECCENTRICITY   = .00151061
INCLINATION    = 82.5156
RA_OF_ASC_NODE = 265.4885
ARG_OF_PERICENTER = 304.1727
MEAN_ANOMALY   = 55.8062

EPHEMERIS_TYPE = 0
CLASSIFICATION_TYPE = U
NORAD_CAT_ID   = 22626
ELEMENT_SET_NO = 999
REV_AT_EPOCH   = 78058
BSTAR          = .17994766E-3
MEAN_MOTION_DOT = .2076E-4
MEAN_MOTION_DDOT = 0

CCSDS_OMM_VERS = 2.0
CREATION_DATE  = 
ORIGINATOR     = 

OBJECT_NAME    = SL-16 R/B
OBJECT_ID      = 1993-059B
CENTER_NAME    = EARTH
REF_FRAME      = TEME
TIME_SYSTEM    = UTC
MEAN_ELEMENT_THEORY = SGP/SGP4

EPOCH          = 2026-03-10T23:01:07.027104
MEAN_MOTION    = 14.17231463
ECCENTRICITY   = .00184776
INCLINATION    = 70.9928
RA_OF_ASC_NODE = 8.4489
ARG_OF_PERICENTER = 214.7324
MEAN_ANOMALY   = 145.2595

EPHEMERIS_TYPE = 0
CLASSIFICATION_TYPE = U
NORAD_CAT_ID   = 22803
ELEMENT_SET_NO = 999
REV_AT_EPOCH   = 67971
BSTAR          = -.39833325E-4
MEAN_MOTION_DOT = -.129E-5
MEAN_MOTION_DDOT = 0

CCSDS_OMM_VERS = 2.0
CREATION_DATE  = 
ORIGINATOR     = 

OBJECT_NAME    = ARIANE 40 R/B
OBJECT_ID      = 1993-061H
CENTER_NAME    = EARTH
REF_FRAME      = TEME
TIME_SYSTEM    = UTC
MEAN_ELEMENT_THEORY = SGP/SGP4

EPOCH          = 2026-03-10T22:55:57.151776
MEAN_MOTION    = 14.32861662
ECCENTRICITY   = .00095459
INCLINATION    = 98.4913
RA_OF_ASC_NODE = 138.8182
ARG_OF_PERICENTER = 280.9265
MEAN_ANOMALY   = 79.0845

EPHEMERIS_TYPE = 0
CLASSIFICATION_TYPE = U
NORAD_CAT_ID   = 22830
ELEMENT_SET_NO = 999
REV_AT_EPOCH   = 69428
BSTAR          = .98349045E-4
MEAN_MOTION_DOT = .225E-5
MEAN_MOTION_DDOT = 0

CCSDS_OMM_VERS = 2.0
CREATION_DATE  = 
ORIGINATOR     = 

OBJECT_NAME    = COSMOS 2278
OBJECT_ID      = 1994-023A
CENTER_NAME    = EARTH
REF_FRAME      = TEME
TIME_SYSTEM    = UTC
MEAN_ELEMENT_THEORY = SGP/SGP4

EPOCH          = 2026-03-10T17:30:10.598112
MEAN_MOTION    = 14.14379218
ECCENTRICITY   = .00081191
INCLINATION    = 71.0553
RA_OF_ASC_NODE = 172.9226
ARG_OF_PERICENTER = 11.0961
MEAN_ANOMALY   = 349.0340

EPHEMERIS_TYPE = 0
CLASSIFICATION_TYPE = U
NORAD_CAT_ID   = 23087
ELEMENT_SET_NO = 999
REV_AT_EPOCH   = 64495
BSTAR          = .63042888E-4
MEAN_MOTION_DOT = .74E-6
MEAN_MOTION_DDOT = 0

CCSDS_OMM_VERS = 2.0
CREATION_DATE  = 
ORIGINATOR     = 

OBJECT_NAME    = SL-16 R/B
OBJECT_ID      = 1994-023B
CENTER_NAME    = EARTH
REF_FRAME      = TEME
TIME_SYSTEM    = UTC
MEAN_ELEMENT_THEORY = SGP/SGP4

EPOCH          = 2026-03-10T10:07:25.698144
MEAN_MOTION    = 14.15011602
ECCENTRICITY   = .0005711
INCLINATION    = 70.9986
RA_OF_ASC_NODE = 69.3494
ARG_OF_PERICENTER = 284.9255
MEAN_ANOMALY   = 75.1235

EPHEMERIS_TYPE = 0
CLASSIFICATION_TYPE = U
NORAD_CAT_ID   = 23088
ELEMENT_SET_NO = 999
REV_AT_EPOCH   = 64619
BSTAR          = -.98608528E-4
MEAN_MOTION_DOT = -.239E-5
MEAN_MOTION_DDOT = 0

CCSDS_OMM_VERS = 2.0
CREATION_DATE  = 
ORIGINATOR     = 

OBJECT_NAME    = SL-16 R/B
OBJECT_ID      = 1994-074B
CENTER_NAME    = EARTH
REF_FRAME      = TEME
TIME_SYSTEM    = UTC
MEAN_ELEMENT_THEORY = SGP/SGP4

EPOCH          = 2026-03-11T00:05:17.863872
MEAN_MOTION    = 14.79409628
ECCENTRICITY   = .00058839
INCLINATION    = 97.7108
RA_OF_ASC_NODE = 100.7681
ARG_OF_PERICENTER = 205.4734
MEAN_ANOMALY   = 177.4528

EPHEMERIS_TYPE = 0
CLASSIFICATION_TYPE = U
NORAD_CAT_ID   = 23343
ELEMENT_SET_NO = 999
REV_AT_EPOCH   = 68744
BSTAR          = .81677871E-4
MEAN_MOTION_DOT = .56E-5
MEAN_MOTION_DDOT = 0

CCSDS_OMM_VERS = 2.0
CREATION_DATE  = 
ORIGINATOR     = 

OBJECT_NAME    = SL-16 R/B
OBJECT_ID      = 1994-077B
CENTER_NAME    = EARTH
REF_FRAME      = TEME
TIME_SYSTEM    = UTC
MEAN_ELEMENT_THEORY = SGP/SGP4

EPOCH          = 2026-03-10T21:32:51.781920
MEAN_MOTION    = 14.15561344
ECCENTRICITY   = .00030328
INCLINATION    = 70.9853
RA_OF_ASC_NODE = 349.9476
ARG_OF_PERICENTER = 210.4996
MEAN_ANOMALY   = 149.5951

EPHEMERIS_TYPE = 0
CLASSIFICATION_TYPE = U
NORAD_CAT_ID   = 23405
ELEMENT_SET_NO = 999
REV_AT_EPOCH   = 61640
BSTAR          = .39057659E-4
MEAN_MOTION_DOT = .29E-6
MEAN_MOTION_DDOT = 0

CCSDS_OMM_VERS = 2.0
CREATION_DATE  = 
ORIGINATOR     = 

OBJECT_NAME    = ARIANE 40+ R/B
OBJECT_ID      = 1995-021B
CENTER_NAME    = EARTH
REF_FRAME      = TEME
TIME_SYSTEM    = UTC
MEAN_ELEMENT_THEORY = SGP/SGP4

EPOCH          = 2026-03-10T19:11:02.651136
MEAN_MOTION    = 14.39773382
ECCENTRICITY   = .00076713
INCLINATION    = 98.4494
RA_OF_ASC_NODE = 141.2667
ARG_OF_PERICENTER = 133.4864
MEAN_ANOMALY   = 337.2868

EPHEMERIS_TYPE = 0
CLASSIFICATION_TYPE = U
NORAD_CAT_ID   = 23561
ELEMENT_SET_NO = 999
REV_AT_EPOCH   = 61940
BSTAR          = .12668222E-3
MEAN_MOTION_DOT = .354E-5
MEAN_MOTION_DDOT = 0

CCSDS_OMM_VERS = 2.0
CREATION_DATE  = 
ORIGINATOR     = 

OBJECT_NAME    = SL-16 R/B
OBJECT_ID      = 1995-058B
CENTER_NAME    = EARTH
REF_FRAME      = TEME
TIME_SYSTEM    = UTC
MEAN_ELEMENT_THEORY = SGP/SGP4

EPOCH          = 2026-03-10T16:37:44.444064
MEAN_MOTION    = 14.15496012
ECCENTRICITY   = .0010774
INCLINATION    = 71.0222
RA_OF_ASC_NODE = 178.1490
ARG_OF_PERICENTER = 123.8863
MEAN_ANOMALY   = 236.3286

EPHEMERIS_TYPE = 0
CLASSIFICATION_TYPE = U
NORAD_CAT_ID   = 23705
ELEMENT_SET_NO = 999
REV_AT_EPOCH   = 56799
BSTAR          = .19608922E-3
MEAN_MOTION_DOT = .336E-5
MEAN_MOTION_DDOT = 0

CCSDS_OMM_VERS = 2.0
CREATION_DATE  = 
ORIGINATOR     = 

OBJECT_NAME    = SL-16 R/B
OBJECT_ID      = 1996-051B
CENTER_NAME    = EARTH
REF_FRAME      = TEME
TIME_SYSTEM    = UTC
MEAN_ELEMENT_THEORY = SGP/SGP4

EPOCH          = 2026-03-10T17:34:54.193152
MEAN_MOTION    = 14.12415984
ECCENTRICITY   = .00150259
INCLINATION    = 70.7603
RA_OF_ASC_NODE = 173.0311
ARG_OF_PERICENTER = 146.5256
MEAN_ANOMALY   = 213.6817

EPHEMERIS_TYPE = 0
CLASSIFICATION_TYPE = U
NORAD_CAT_ID   = 24298
ELEMENT_SET_NO = 999
REV_AT_EPOCH   = 52179
BSTAR          = .81414672E-4
MEAN_MOTION_DOT = .101E-5
MEAN_MOTION_DDOT = 0

CCSDS_OMM_VERS = 2.0
CREATION_DATE  = 
ORIGINATOR     = 

OBJECT_NAME    = ORBVIEW 2 (SEASTAR)
OBJECT_ID      = 1997-037A
CENTER_NAME    = EARTH
REF_FRAME      = TEME
TIME_SYSTEM    = UTC
MEAN_ELEMENT_THEORY = SGP/SGP4

EPOCH          = 2026-03-10T22:49:55.466688
MEAN_MOTION    = 14.35495987
ECCENTRICITY   = .0003071
INCLINATION    = 98.8571
RA_OF_ASC_NODE = 234.2966
ARG_OF_PERICENTER = 69.5199
MEAN_ANOMALY   = 290.6315

EPHEMERIS_TYPE = 0
CLASSIFICATION_TYPE = U
NORAD_CAT_ID   = 24883
ELEMENT_SET_NO = 999
REV_AT_EPOCH   = 50865
BSTAR          = .14225677E-3
MEAN_MOTION_DOT = .362E-5
MEAN_MOTION_DDOT = 0

CCSDS_OMM_VERS = 2.0
CREATION_DATE  = 
ORIGINATOR     = 

OBJECT_NAME    = SL-16 R/B
OBJECT_ID      = 1998-043G
CENTER_NAME    = EARTH
REF_FRAME      = TEME
TIME_SYSTEM    = UTC
MEAN_ELEMENT_THEORY = SGP/SGP4

EPOCH          = 2026-03-10T20:30:03.917664
MEAN_MOTION    = 14.26050139
ECCENTRICITY   = .00101619
INCLINATION    = 98.8253
RA_OF_ASC_NODE = 23.2258
ARG_OF_PERICENTER = 17.2309
MEAN_ANOMALY   = 342.9213

EPHEMERIS_TYPE = 0
CLASSIFICATION_TYPE = U
NORAD_CAT_ID   = 25400
ELEMENT_SET_NO = 999
REV_AT_EPOCH   = 43915
BSTAR          = .60287304E-4
MEAN_MOTION_DOT = .99E-6
MEAN_MOTION_DDOT = 0

